[{"OBJECT_NAME":"STARLINK-35402","OBJECT_ID":"2025-235X","EPOCH":"2026-03-09T18:04:52.963392","MEAN_MOTION":15.30201306,"ECCENTRICITY":0.00010897,"INCLINATION":53.1595,"RA_OF_ASC_NODE":244.7968,"ARG_OF_PERICENTER":68.6108,"MEAN_ANOMALY":291.5009,"EPHEMERIS_TYPE":0,"CLASSIFICATION_TYPE":"U","NORAD_CAT_ID":66079,"ELEMENT_SET_NO":999,"REV_AT_EPOCH":2293,"BSTAR":0.00073535454,"MEAN_MOTION_DOT":0.00021484,"MEAN_MOTION_DDOT":0},{"OBJECT_NAME":"CZ-4B DEB","OBJECT_ID":"2025-115B","EPOCH":"2026-03-09T18:01:12.826560","MEAN_MOTION":15.38891594,"ECCENTRICITY":0.00333367,"INCLINATION":97.487,"RA_OF_ASC_NODE":148.3212,"ARG_OF_PERICENTER":280.8109,"MEAN_ANOMALY":78.9385,"EPHEMERIS_TYPE":0,"CLASSIFICATION_TYPE":"U","NORAD_CAT_ID":64200,"ELEMENT_SET_NO":999,"REV_AT_EPOCH":4325,"BSTAR":0.0021921784,"MEAN_MOTION_DOT":0.00086722,"MEAN_MOTION_DDOT":0}]
